STARLINK-35284          
1 65741U 25216H   26068.90115122  .00028404  00000+0  96786-3 0  9998
2 65741  53.1590 332.0768 0001782 125.1869 234.9299 15.30185937 26577
KUIPER-00175            
1 67135U 25301C   26068.97960463  .00019968  00000+0  66732-3 0  9998
2 67135  51.8781  63.6978 0002279  50.5695 309.5490 15.30996371 13854
