[{"OBJECT_NAME":"STARLINK-35284","OBJECT_ID":"2025-216H","EPOCH":"2026-03-09T21:37:39.465408","MEAN_MOTION":15.30185937,"ECCENTRICITY":0.00017817,"INCLINATION":53.159,"RA_OF_ASC_NODE":332.0768,"ARG_OF_PERICENTER":125.1869,"MEAN_ANOMALY":234.9299,"EPHEMERIS_TYPE":0,"CLASSIFICATION_TYPE":"U","NORAD_CAT_ID":65741,"ELEMENT_SET_NO":999,"REV_AT_EPOCH":2657,"BSTAR":0.0009678623,"MEAN_MOTION_DOT":0.00028404,"MEAN_MOTION_DDOT":0},{"OBJECT_NAME":"KUIPER-00175","OBJECT_ID":"2025-301C","EPOCH":"2026-03-09T23:30:37.840032","MEAN_MOTION":15.30996371,"ECCENTRICITY":0.00022792,"INCLINATION":51.8781,"RA_OF_ASC_NODE":63.6978,"ARG_OF_PERICENTER":50.5695,"MEAN_ANOMALY":309.549,"EPHEMERIS_TYPE":0,"CLASSIFICATION_TYPE":"U","NORAD_CAT_ID":67135,"ELEMENT_SET_NO":999,"REV_AT_EPOCH":1385,"BSTAR":0.00066732304,"MEAN_MOTION_DOT":0.00019968,"MEAN_MOTION_DDOT":0}]
